STARLINK-31219          
1 58866U 24019P   26068.54390563 -.00001344  00000+0 -39344-4 0  9996
2 58866  43.0009 249.4434 0000959 255.0696 105.0050 15.27574371119045
LUR-1                   
1 60506U 24149AQ  26068.79566301  .00009121  00000+0  32985-3 0  9998
2 60506  97.3790 148.4255 0002777 309.1571  50.9421 15.28658648 86785
